[{"OBJECT_NAME":"NANOSATC-BR1","OBJECT_ID":"2014-033Q","EPOCH":"2026-03-09T23:35:03.168384","MEAN_MOTION":15.28136801,"ECCENTRICITY":0.00046435,"INCLINATION":98.0845,"RA_OF_ASC_NODE":92.7804,"ARG_OF_PERICENTER":147.6715,"MEAN_ANOMALY":212.4808,"EPHEMERIS_TYPE":0,"CLASSIFICATION_TYPE":"U","NORAD_CAT_ID":40024,"ELEMENT_SET_NO":999,"REV_AT_EPOCH":63881,"BSTAR":0.00074295057,"MEAN_MOTION_DOT":0.00020336,"MEAN_MOTION_DDOT":0},{"OBJECT_NAME":"STARLINK-31097","OBJECT_ID":"2024-002P","EPOCH":"2026-03-09T16:17:05.788608","MEAN_MOTION":15.30182949,"ECCENTRICITY":0.00011833,"INCLINATION":53.1599,"RA_OF_ASC_NODE":229.9809,"ARG_OF_PERICENTER":87.2655,"MEAN_ANOMALY":272.8481,"EPHEMERIS_TYPE":0,"CLASSIFICATION_TYPE":"U","NORAD_CAT_ID":58718,"ELEMENT_SET_NO":999,"REV_AT_EPOCH":12201,"BSTAR":-5.1470585e-5,"MEAN_MOTION_DOT":-1.882e-5,"MEAN_MOTION_DDOT":0}]
