NANOSATC-BR1            
1 40024U 14033Q   26068.98267556  .00020336  00000+0  74295-3 0  9994
2 40024  98.0845  92.7804 0004644 147.6715 212.4808 15.28136801638811
STARLINK-31097          
1 58718U 24002P   26068.67853922 -.00001882  00000+0 -51471-4 0  9993
2 58718  53.1599 229.9809 0001183  87.2655 272.8481 15.30182949122018
